{"type": "FeatureCollection", "features": [ {"type": "Feature", "properties": {"norad_id": 36402, "name": "COSMOS 2460 (732)", "group": "gnss", "lat": -45.362567868423554, "lon": -66.50775625243644, "alt_km": 19129.36275133793, "timestamp": "2025-12-07T03:52:32.737789+00:00", "meta": {"OBJECT_NAME": "COSMOS 2460 (732)", "OBJECT_ID": "2010-007C", "EPOCH": "2025-12-05T09:49:39.891072", "MEAN_MOTION": 2.13106027, "ECCENTRICITY": 0.00027397, "INCLINATION": 65.5337, "RA_OF_ASC_NODE": 321.021, "ARG_OF_PERICENTER": 272.5603, "MEAN_ANOMALY": 131.8824, "EPHEMERIS_TYPE": 0, "CLASSIFICATION_TYPE": "U", "NORAD_CAT_ID": 36402, "ELEMENT_SET_NO": 999, "REV_AT_EPOCH": 12260, "BSTAR": 0, "MEAN_MOTION_DOT": -4.8e-07, "MEAN_MOTION_DDOT": 0}, "tle": {"line1": "1 36402U 10007C   25339.40948948 -.00000048  00000+0  00000+0 0  9992", "line2": "2 36402  65.5337 321.0210 0002739 272.5603 131.8824  2.13106027122601"}}, "geometry": {"type": "Point", "coordinates": [-66.50775625243644, -45.362567868423554]}}, {"type": "Feature", "properties": {"norad_id": 36585, "name": "GPS BIIF-1  (PRN 25)", "group": "gnss", "lat": 46.1489228917782, "lon": -12.106721403224952, "alt_km": 19970.8561860196, "timestamp": "2025-12-07T03:52:32.737801+00:00", "meta": {"OBJECT_NAME": "GPS BIIF-1  (PRN 25)", "OBJECT_ID": "2010-022A", "EPOCH": "2025-12-06T05:55:19.682976", "MEAN_MOTION": 2.00552783, "ECCENTRICITY": 0.01258443, "INCLINATION": 54.3013, "RA_OF_ASC_NODE": 216.3359, "ARG_OF_PERICENTER": 65.0038, "MEAN_ANOMALY": 110.8352, "EPHEMERIS_TYPE": 0, "CLASSIFICATION_TYPE": "U", "NORAD_CAT_ID": 36585, "ELEMENT_SET_NO": 999, "REV_AT_EPOCH": 11372, "BSTAR": 0, "MEAN_MOTION_DOT": 5.1e-07, "MEAN_MOTION_DDOT": 0}, "tle": {"line1": "1 36585U 10022A   25340.24675559  .00000051  00000+0  00000+0 0  9993", "line2": "2 36585  54.3013 216.3359 0125844  65.0038 110.8352  2.00552783113726"}}, "geometry": {"type": "Point", "coordinates": [-12.106721403224952, 46.1489228917782]}}, {"type": "Feature", "properties": {"norad_id": 36828, "name": "BEIDOU-2 IGSO-1 (C06)", "group": "gnss", "lat": 52.24977523040593, "lon": -126.76952556977928, "alt_km": 35941.00289653794, "timestamp": "2025-12-07T03:52:32.737813+00:00", "meta": {"OBJECT_NAME": "BEIDOU-2 IGSO-1 (C06)", "OBJECT_ID": "2010-036A", "EPOCH": "2025-12-06T10:45:13.811328", "MEAN_MOTION": 1.00277832, "ECCENTRICITY": 0.00512425, "INCLINATION": 54.2853, "RA_OF_ASC_NODE": 164.7048, "ARG_OF_PERICENTER": 215.825, "MEAN_ANOMALY": 324.072, "EPHEMERIS_TYPE": 0, "CLASSIFICATION_TYPE": "U", "NORAD_CAT_ID": 36828, "ELEMENT_SET_NO": 999, "REV_AT_EPOCH": 5616, "BSTAR": 0, "MEAN_MOTION_DOT": -5.7e-07, "MEAN_MOTION_DDOT": 0}, "tle": {"line1": "1 36828U 10036A   25340.44807652 -.00000057  00000+0  00000+0 0  9998", "line2": "2 36828  54.2853 164.7048 0051242 215.8250 324.0720  1.00277832 56169"}}, "geometry": {"type": "Point", "coordinates": [-126.76952556977928, 52.24977523040593]}}, {"type": "Feature", "properties": {"norad_id": 37210, "name": "BEIDOU-2 G4 (C04)", "group": "gnss", "lat": -2.2407123890203255, "lon": -65.57643528153977, "alt_km": 35748.38183050551, "timestamp": "2025-12-07T03:52:32.737826+00:00", "meta": {"OBJECT_NAME": "BEIDOU-2 G4 (C04)", "OBJECT_ID": "2010-057A", "EPOCH": "2025-12-06T11:29:51.700704", "MEAN_MOTION": 1.00271344, "ECCENTRICITY": 0.0010962, "INCLINATION": 3.1684, "RA_OF_ASC_NODE": 69.9542, "ARG_OF_PERICENTER": 189.6484, "MEAN_ANOMALY": 148.4539, "EPHEMERIS_TYPE": 0, "CLASSIFICATION_TYPE": "U", "NORAD_CAT_ID": 37210, "ELEMENT_SET_NO": 999, "REV_AT_EPOCH": 5535, "BSTAR": 0, "MEAN_MOTION_DOT": -1.06e-06, "MEAN_MOTION_DDOT": 0}, "tle": {"line1": "1 37210U 10057A   25340.47907061 -.00000106  00000+0  00000+0 0  9990", "line2": "2 37210   3.1684  69.9542 0010962 189.6484 148.4539  1.00271344 55354"}}, "geometry": {"type": "Point", "coordinates": [-65.57643528153977, -2.2407123890203255]}}, {"type": "Feature", "properties": {"norad_id": 37256, "name": "BEIDOU-2 IGSO-2 (C07)", "group": "gnss", "lat": -23.178371931510682, "lon": -108.53606729220631, "alt_km": 35861.749772240146, "timestamp": "2025-12-07T03:52:32.737838+00:00", "meta": {"OBJECT_NAME": "BEIDOU-2 IGSO-2 (C07)", "OBJECT_ID": "2010-068A", "EPOCH": "2025-12-03T17:22:36.030432", "MEAN_MOTION": 1.0028871, "ECCENTRICITY": 0.00492335, "INCLINATION": 47.9043, "RA_OF_ASC_NODE": 274.2613, "ARG_OF_PERICENTER": 216.1442, "MEAN_ANOMALY": 310.2369, "EPHEMERIS_TYPE": 0, "CLASSIFICATION_TYPE": "U", "NORAD_CAT_ID": 37256, "ELEMENT_SET_NO": 999, "REV_AT_EPOCH": 5483, "BSTAR": 0, "MEAN_MOTION_DOT": -2.25e-06, "MEAN_MOTION_DDOT": 0}, "tle": {"line1": "1 37256U 10068A   25337.72402813 -.00000225  00000+0  00000+0 0  9993", "line2": "2 37256  47.9043 274.2613 0049233 216.1442 310.2369  1.00288710 54839"}}, "geometry": {"type": "Point", "coordinates": [-108.53606729220631, -23.178371931510682]}}, {"type": "Feature", "properties": {"norad_id": 37384, "name": "BEIDOU-2 IGSO-3 (C08)", "group": "gnss", "lat": -17.648318536917, "lon": -128.31763222350256, "alt_km": 35643.88226534053, "timestamp": "2025-12-07T03:52:32.737851+00:00", "meta": {"OBJECT_NAME": "BEIDOU-2 IGSO-3 (C08)", "OBJECT_ID": "2011-013A", "EPOCH": "2025-12-03T14:52:09.520896", "MEAN_MOTION": 1.00272128, "ECCENTRICITY": 0.00353922, "INCLINATION": 62.1308, "RA_OF_ASC_NODE": 42.005, "ARG_OF_PERICENTER": 186.5359, "MEAN_ANOMALY": 174.9093, "EPHEMERIS_TYPE": 0, "CLASSIFICATION_TYPE": "U", "NORAD_CAT_ID": 37384, "ELEMENT_SET_NO": 999, "REV_AT_EPOCH": 5370, "BSTAR": 0, "MEAN_MOTION_DOT": -1.99e-06, "MEAN_MOTION_DDOT": 0}, "tle": {"line1": "1 37384U 11013A   25337.61955464 -.00000199  00000+0  00000+0 0  9999", "line2": "2 37384  62.1308  42.0050 0035392 186.5359 174.9093  1.00272128 53708"}}, "geometry": {"type": "Point", "coordinates": [-128.31763222350256, -17.648318536917]}}, {"type": "Feature", "properties": {"norad_id": 37605, "name": "GSAT-8 (GAGAN/PRN 127)", "group": "gnss", "lat": 1.565831639615044, "lon": -170.67330829240314, "alt_km": 35774.98016433941, "timestamp": "2025-12-07T03:52:32.737865+00:00", "meta": {"OBJECT_NAME": "GSAT-8 (GAGAN/PRN 127)", "OBJECT_ID": "2011-022A", "EPOCH": "2025-12-06T03:39:14.050080", "MEAN_MOTION": 1.00272373, "ECCENTRICITY": 0.00091164, "INCLINATION": 1.6318, "RA_OF_ASC_NODE": 84.2605, "ARG_OF_PERICENTER": 179.169, "MEAN_ANOMALY": 281.6727, "EPHEMERIS_TYPE": 0, "CLASSIFICATION_TYPE": "U", "NORAD_CAT_ID": 37605, "ELEMENT_SET_NO": 999, "REV_AT_EPOCH": 5128, "BSTAR": 0, "MEAN_MOTION_DOT": 9.2e-07, "MEAN_MOTION_DDOT": 0}, "tle": {"line1": "1 37605U 11022A   25340.15224595  .00000092  00000+0  00000+0 0  9993", "line2": "2 37605   1.6318  84.2605 0009116 179.1690 281.6727  1.00272373 51281"}}, "geometry": {"type": "Point", "coordinates": [-170.67330829240314, 1.565831639615044]}}, {"type": "Feature", "properties": {"norad_id": 37763, "name": "BEIDOU-2 IGSO-4 (C09)", "group": "gnss", "lat": 45.308618566654346, "lon": -146.51026969172685, "alt_km": 36395.56140983763, "timestamp": "2025-12-07T03:52:32.737878+00:00", "meta": {"OBJECT_NAME": "BEIDOU-2 IGSO-4 (C09)", "OBJECT_ID": "2011-038A", "EPOCH": "2025-12-01T12:32:09.960864", "MEAN_MOTION": 1.00284074, "ECCENTRICITY": 0.01487808, "INCLINATION": 54.5808, "RA_OF_ASC_NODE": 167.4476, "ARG_OF_PERICENTER": 230.2031, "MEAN_ANOMALY": 315.0387, "EPHEMERIS_TYPE": 0, "CLASSIFICATION_TYPE": "U", "NORAD_CAT_ID": 37763, "ELEMENT_SET_NO": 999, "REV_AT_EPOCH": 5266, "BSTAR": 0, "MEAN_MOTION_DOT": 1.01e-06, "MEAN_MOTION_DDOT": 0}, "tle": {"line1": "1 37763U 11038A   25335.52233751  .00000101  00000+0  00000+0 0  9995", "line2": "2 37763  54.5808 167.4476 0148780 230.2031 315.0387  1.00284074 52664"}}, "geometry": {"type": "Point", "coordinates": [-146.51026969172685, 45.308618566654346]}}, {"type": "Feature", "properties": {"norad_id": 37846, "name": "GSAT0101 (GALILEO-PFM)", "group": "gnss", "lat": 55.033123508377585, "lon": 55.01181993743725, "alt_km": 23220.71856864268, "timestamp": "2025-12-07T03:52:32.737892+00:00", "meta": {"OBJECT_NAME": "GSAT0101 (GALILEO-PFM)", "OBJECT_ID": "2011-060A", "EPOCH": "2025-12-06T10:45:46.943136", "MEAN_MOTION": 1.70475516, "ECCENTRICITY": 0.00028809, "INCLINATION": 57.0541, "RA_OF_ASC_NODE": 346.9907, "ARG_OF_PERICENTER": 311.6243, "MEAN_ANOMALY": 48.3737, "EPHEMERIS_TYPE": 0, "CLASSIFICATION_TYPE": "U", "NORAD_CAT_ID": 37846, "ELEMENT_SET_NO": 999, "REV_AT_EPOCH": 8783, "BSTAR": 0, "MEAN_MOTION_DOT": -8.1e-07, "MEAN_MOTION_DDOT": 0}, "tle": {"line1": "1 37846U 11060A   25340.44845999 -.00000081  00000+0  00000+0 0  9990", "line2": "2 37846  57.0541 346.9907 0002880 311.6243  48.3737  1.70475516 87832"}}, "geometry": {"type": "Point", "coordinates": [55.01181993743725, 55.033123508377585]}}, {"type": "Feature", "properties": {"norad_id": 37847, "name": "GSAT0102 (GALILEO-FM2)", "group": "gnss", "lat": 44.66620078948501, "lon": 127.09923939177011, "alt_km": 23230.973879540255, "timestamp": "2025-12-07T03:52:32.737909+00:00", "meta": {"OBJECT_NAME": "GSAT0102 (GALILEO-FM2)", "OBJECT_ID": "2011-060B", "EPOCH": "2025-12-06T01:52:21.849024", "MEAN_MOTION": 1.7047572, "ECCENTRICITY": 0.00048425, "INCLINATION": 57.055, "RA_OF_ASC_NODE": 347.0012, "ARG_OF_PERICENTER": 307.2223, "MEAN_ANOMALY": 230.8964, "EPHEMERIS_TYPE": 0, "CLASSIFICATION_TYPE": "U", "NORAD_CAT_ID": 37847, "ELEMENT_SET_NO": 999, "REV_AT_EPOCH": 8783, "BSTAR": 0, "MEAN_MOTION_DOT": -7.9e-07, "MEAN_MOTION_DDOT": 0}, "tle": {"line1": "1 37847U 11060B   25340.07803066 -.00000079  00000+0  00000+0 0  9996", "line2": "2 37847  57.0550 347.0012 0004842 307.2223 230.8964  1.70475720 87838"}}, "geometry": {"type": "Point", "coordinates": [127.09923939177011, 44.66620078948501]}}]}